NORAD_CAT_ID,OBJECT_NAME,OBJECT_TYPE,EPOCH,MEAN_MOTION,ECCENTRICITY,INCLINATION,RA_OF_ASC_NODE,ARG_OF_PERICENTER,MEAN_ANOMALY,BSTAR,MEAN_MOTION_DOT,MEAN_MOTION_DDOT,TLE_LINE0,TLE_LINE1,TLE_LINE2,SEMIMAJOR_AXIS,PERIOD,APOGEE,PERIGEE,DECAYED
52356.0,STARLINK-3801,PAYLOAD,2023-04-07 14:47:52,15.08838375,8.9e-05,53.2145,309.4235,100.0488,260.0605,2.9802e-05,1.87e-06,0.0,0 STARLINK-3801,1 52356U 22045AB  23097.61657689  .00000187  00000-0  29802-4 0  9994,2 52356  53.2145 309.4235 0000890 100.0488 260.0605 15.08838375 54698,6917.885,95.438,540.366,539.135,0.0
52356.0,STARLINK-3801,PAYLOAD,2023-04-08 13:03:16,15.0883188,0.000111,53.2146,305.2606,82.3464,277.7654,3.8917e-05,3.31e-06,0.0,0 STARLINK-3801,1 52356U 22045AB  23098.54394361  .00000331  00000-0  38917-4 0  9990,2 52356  53.2146 305.2606 0001110  82.3464 277.7654 15.08831880 54836,6917.905,95.438,540.538,539.002,0.0
52356.0,STARLINK-3801,PAYLOAD,2023-04-09 00:10:58,15.08839427,8.55e-05,53.2154,303.1784,81.6007,278.5083,6.0438e-05,6.74e-06,0.0,0 STARLINK-3801,1 52356U 22045AB  23099.00762055  .00000674  00000-0  60438-4 0  9994,2 52356  53.2154 303.1784 0000855  81.6007 278.5083 15.08839427 54907,6917.882,95.438,540.339,539.156,0.0
52356.0,STARLINK-3801,PAYLOAD,2023-04-09 12:54:03,15.08838772,9.3e-05,53.2155,300.7991,82.0417,278.068,7.8091e-05,9.55e-06,0.0,0 STARLINK-3801,1 52356U 22045AB  23099.53754239  .00000955  00000-0  78091-4 0  9993,2 52356  53.2155 300.7991 0000930  82.0417 278.0680 15.08838772 54983,6917.884,95.438,540.393,539.106,0.0
52356.0,STARLINK-3801,PAYLOAD,2023-04-09 20:50:58,15.08848806,9.72e-05,53.2153,299.3123,90.5554,269.5549,0.00024834,3.668e-05,0.0,0 STARLINK-3801,1 52356U 22045AB  23099.86873841  .00003668  00000-0  24834-3 0  9999,2 52356  53.2153 299.3123 0000972  90.5554 269.5549 15.08848806 55038,6917.853,95.437,540.391,539.046,0.0
52356.0,STARLINK-3801,PAYLOAD,2023-04-10 00:01:45,15.08849791,9.65e-05,53.2153,298.7171,87.5794,272.5308,0.00031662,4.756e-05,0.0,0 STARLINK-3801,1 52356U 22045AB  23100.00121847  .00004756  00000-0  31662-3 0  9996,2 52356  53.2153 298.7171 0000965  87.5794 272.5308 15.08849791 55051,6917.85,95.437,540.383,539.048,0.0
52356.0,STARLINK-3801,PAYLOAD,2023-04-10 19:06:23,15.0884341,0.0001081,53.2159,295.1475,89.2048,270.9068,0.00015879,2.24e-05,0.0,0 STARLINK-3801,1 52356U 22045AB  23100.79610129  .00002240  00000-0  15879-3 0  9996,2 52356  53.2159 295.1475 0001081  89.2048 270.9068 15.08843410 55176,6917.87,95.437,540.483,538.987,0.0
52356.0,STARLINK-3801,PAYLOAD,2023-04-11 12:35:37,15.08839544,0.0001325,53.2161,291.8782,84.7177,275.3966,8.0448e-05,9.93e-06,0.0,0 STARLINK-3801,1 52356U 22045AB  23101.52474448  .00000993  00000-0  80448-4 0  9998,2 52356  53.2161 291.8782 0001325  84.7177 275.3966 15.08839544 55288,6917.882,95.438,540.663,538.83,0.0
52356.0,STARLINK-3801,PAYLOAD,2023-04-11 18:57:10,15.08845943,0.0001331,53.2158,290.6899,80.4707,279.6436,0.0001087,1.443e-05,0.0,0 STARLINK-3801,1 52356U 22045AB  23101.78970097  .00001443  00000-0  10870-3 0  9999,2 52356  53.2158 290.6899 0001331  80.4707 279.6436 15.08845943 55323,6917.862,95.437,540.648,538.806,0.0
52356.0,STARLINK-3801,PAYLOAD,2023-04-12 06:04:52,15.08842725,0.0001199,53.2146,288.6096,72.9386,287.1738,4.152e-05,3.73e-06,0.0,0 STARLINK-3801,1 52356U 22045AB  23102.25338295  .00000373  00000-0  41520-4 0  9998,2 52356  53.2146 288.6096 0001199  72.9386 287.1738 15.08842725 55398,6917.872,95.437,540.567,538.908,0.0
52356.0,STARLINK-3801,PAYLOAD,2023-04-12 18:47:57,15.08851075,0.0001272,53.214,286.2284,79.2448,280.8687,-0.00013577,-2.449e-05,0.0,0 STARLINK-3801,1 52356U 22045AB  23102.78329879 -.00002449  00000-0 -13577-3 0  9992,2 52356  53.2140 286.2284 0001272  79.2448 280.8687 15.08851075 55476,6917.847,95.437,540.591,538.832,0.0
52356.0,STARLINK-3801,PAYLOAD,2023-04-12 21:58:43,15.08854952,0.0001171,53.2152,285.6347,76.0517,284.0605,-0.00020051,-3.479e-05,0.0,0 STARLINK-3801,1 52356U 22045AB  23102.91577640 -.00003479  00000-0 -20051-3 0  9997,2 52356  53.2152 285.6347 0001171  76.0517 284.0605 15.08854952 55497,6917.835,95.437,540.51,538.89,0.0
52356.0,STARLINK-3801,PAYLOAD,2023-04-14 12:07:58,15.08842257,9.78e-05,53.2174,278.497,84.4697,275.6406,8.2685e-05,1.029e-05,0.0,0 STARLINK-3801,1 52356U 22045AB  23104.50554213  .00001029  00000-0  82685-4 0  9994,2 52356  53.2174 278.4970 0000978  84.4697 275.6406 15.08842257 55736,6917.873,95.437,540.415,539.062,0.0
52356.0,STARLINK-3801,PAYLOAD,2023-04-14 21:40:17,15.088495,0.0001105,53.215,276.7125,87.0721,273.0397,8.2567e-05,1.027e-05,0.0,0 STARLINK-3801,1 52356U 22045AB  23104.90297705  .00001027  00000-0  82567-4 0  9995,2 52356  53.2150 276.7125 0001105  87.0721 273.0397 15.08849500 55798,6917.851,95.437,540.481,538.952,0.0
52356.0,STARLINK-3801,PAYLOAD,2023-04-15 11:58:46,15.08835688,0.0001304,53.2122,274.0367,96.6361,263.4779,-3.5876e-05,-8.59e-06,0.0,0 STARLINK-3801,1 52356U 22045AB  23105.49914510 -.00000859  00000-0 -35876-4 0  9995,2 52356  53.2122 274.0367 0001304  96.6361 263.4779 15.08835688 55882,6917.894,95.438,540.661,538.856,0.0
52356.0,STARLINK-3801,PAYLOAD,2023-04-15 19:55:41,15.08847446,0.000122,53.2154,272.5508,96.4335,263.6796,0.00013873,1.921e-05,0.0,0 STARLINK-3801,1 52356U 22045AB  23105.83033967  .00001921  00000-0  13873-3 0  9992,2 52356  53.2154 272.5508 0001220  96.4335 263.6796 15.08847446 55935,6917.858,95.437,540.567,538.879,0.0
52356.0,STARLINK-3801,PAYLOAD,2023-04-16 11:49:33,15.08836085,8.76e-05,53.2156,269.5766,87.6305,272.4788,0.00011592,1.557e-05,0.0,0 STARLINK-3801,1 52356U 22045AB  23106.49274558  .00001557  00000-0  11592-3 0  9999,2 52356  53.2156 269.5766 0000876  87.6305 272.4788 15.08836085 56032,6917.892,95.438,540.363,539.151,0.0
52356.0,STARLINK-3801,PAYLOAD,2023-04-16 19:46:28,15.08848894,0.0001198,53.2157,268.0892,92.9495,267.1634,0.00020924,3.045e-05,0.0,0 STARLINK-3801,1 52356U 22045AB  23106.82393967  .00003045  00000-0  20924-3 0  9995,2 52356  53.2157 268.0892 0001198  92.9495 267.1634 15.08848894 56081,6917.853,95.437,540.547,538.889,0.0
52356.0,STARLINK-3801,PAYLOAD,2023-04-17 13:15:43,15.08838983,0.0001382,53.2161,264.819,92.2446,267.8705,0.00011809,1.592e-05,0.0,0 STARLINK-3801,1 52356U 22045AB  23107.55258617  .00001592  00000-0  11809-3 0  9995,2 52356  53.2161 264.8190 0001382  92.2446 267.8705 15.08838983 56191,6917.883,95.438,540.705,538.792,0.0
52356.0,STARLINK-3801,PAYLOAD,2023-04-17 19:37:15,15.08846703,0.0001375,53.216,263.6301,90.112,270.003,0.00015667,2.207e-05,0.0,0 STARLINK-3801,1 52356U 22045AB  23107.81754316  .00002207  00000-0  15667-3 0  9991,2 52356  53.2160 263.6301 0001375  90.1120 270.0030 15.08846703 56230,6917.86,95.437,540.676,538.774,0.0
52356.0,STARLINK-3801,PAYLOAD,2023-04-18 09:55:44,15.08836922,0.0001165,53.2159,260.9532,90.6922,269.4204,7.9077e-05,9.71e-06,0.0,0 STARLINK-3801,1 52356U 22045AB  23108.41370779  .00000971  00000-0  79077-4 0  9997,2 52356  53.2159 260.9532 0001165  90.6922 269.4204 15.08836922 56323,6917.89,95.438,540.561,538.949,0.0
52356.0,STARLINK-3801,PAYLOAD,2023-04-18 16:17:16,15.08843234,0.0001423,53.2149,259.7647,87.1177,272.9978,3.5361e-05,2.75e-06,0.0,0 STARLINK-3801,1 52356U 22045AB  23108.67866507  .00000275  00000-0  35361-4 0  9999,2 52356  53.2149 259.7647 0001423  87.1177 272.9978 15.08843234 56360,6917.871,95.437,540.72,538.751,0.0
52356.0,STARLINK-3801,PAYLOAD,2023-04-19 09:46:31,15.08837563,0.0001216,53.2155,256.492,81.6199,278.4931,0.00013692,1.892e-05,0.0,0 STARLINK-3801,1 52356U 22045AB  23109.40731013  .00001892  00000-0  13692-3 0  9992,2 52356  53.2155 256.4920 0001216  81.6199 278.4931 15.08837563 56478,6917.888,95.438,540.594,538.912,0.0
52356.0,STARLINK-3801,PAYLOAD,2023-04-19 16:08:04,15.0884114,0.000117,53.2155,255.3027,81.5027,278.6098,0.00017863,2.556e-05,0.0,0 STARLINK-3801,1 52356U 22045AB  23109.67226866  .00002556  00000-0  17863-3 0  9998,2 52356  53.2155 255.3027 0001170  81.5027 278.6098 15.08841140 56519,6917.877,95.437,540.551,538.933,0.0
52356.0,STARLINK-3801,PAYLOAD,2023-04-20 09:37:18,15.0883478,0.0001495,53.2147,252.032,69.8421,290.2732,9.301e-05,1.192e-05,0.0,0 STARLINK-3801,1 52356U 22045AB  23110.40091390  .00001192  00000-0  93010-4 0  9997,2 52356  53.2147 252.0320 0001495  69.8421 290.2732 15.08834780 56626,6917.896,95.438,540.796,538.727,0.0
52356.0,STARLINK-3801,PAYLOAD,2023-04-20 20:45:00,15.08850232,0.0001355,53.2166,249.9482,78.9078,281.2067,0.0002152,3.14e-05,0.0,0 STARLINK-3801,1 52356U 22045AB  23110.86458588  .00003140  00000-0  21520-3 0  9994,2 52356  53.2166 249.9482 0001355  78.9078 281.2067 15.08850232 56693,6917.849,95.437,540.651,538.777,0.0
52356.0,STARLINK-3801,PAYLOAD,2023-04-21 19:00:24,15.08843056,0.0001432,53.2147,245.7862,75.0198,285.0953,0.00017959,2.572e-05,0.0,0 STARLINK-3801,1 52356U 22045AB  23111.79195225  .00002572  00000-0  17959-3 0  9992,2 52356  53.2147 245.7862 0001432  75.0198 285.0953 15.08843056 56833,6917.871,95.437,540.727,538.745,0.0
52356.0,STARLINK-3801,PAYLOAD,2023-04-21 20:35:47,15.08849064,0.0001376,53.2154,245.4888,74.6596,285.4548,0.00029713,4.445e-05,0.0,0 STARLINK-3801,1 52356U 22045AB  23111.85819003  .00004445  00000-0  29713-3 0  9998,2 52356  53.2154 245.4888 0001376  74.6596 285.4548 15.08849064 56840,6917.853,95.437,540.67,538.766,0.0
52356.0,STARLINK-3801,PAYLOAD,2023-04-22 20:26:34,15.08862178,0.0001631,53.2148,241.0277,78.418,281.6996,0.00054656,8.426e-05,0.0,0 STARLINK-3801,1 52356U 22045AB  23112.85178472  .00008426  00000-0  54656-3 0  9994,2 52356  53.2148 241.0277 0001631  78.4180 281.6996 15.08862178 56994,6917.813,95.436,540.806,538.549,0.0
52356.0,STARLINK-3801,PAYLOAD,2023-04-23 01:12:44,15.08821777,9.68e-05,53.2161,240.1369,95.713,264.3973,-0.00050226,-8.268e-05,0.0,0 STARLINK-3801,1 52356U 22045AB  23113.05051374 -.00008268  00000-0 -50226-3 0  9993,2 52356  53.2161 240.1369 0000968  95.7130 264.3973 15.08821777 57028,6917.936,95.439,540.471,539.131,0.0
